start=new Date('2023-01-04T00:00:00.000Z').valueOf();
sats=[{"ARG_OF_PERICENTER":"39.2374","MEAN_MOTION_DDOT":"0.0000000000000","CENTER_NAME":"EARTH","FILE":"3730599","RCS_SIZE":"LARGE","MEAN_MOTION_DOT":"0.00000498","EPHEMERIS_TYPE":"0","OBJECT_NAME":"STARLINK-1262","APOAPSIS":"548.939","COUNTRY_CODE":"US","ECCENTRICITY":"0.00024480","CLASSIFICATION_TYPE":"U","LAUNCH_DATE":"2020-03-18","PERIOD":"95.593","TLE_LINE2":"2 45366  53.0583 338.8640 0002448  39.2374 320.8792 15.06390032154738","RA_OF_ASC_NODE":"338.8640","EPOCH":"2023-01-03T14:54:28.914336","ELEMENT_SET_NO":"999","REF_FRAME":"TEME","REV_AT_EPOCH":"15473","GP_ID":"222083295","PERIAPSIS":"545.549","MEAN_MOTION":"15.06390032","MEAN_ANOMALY":"320.8792","INCLINATION":"53.0583","DECAY_DATE":null,"OBJECT_TYPE":"PAYLOAD","OBJECT_ID":"2020-019G","TLE_LINE1":"1 45366U 20019G   23003.62116799  .00000498  00000-0  52354-4 0  9999","TIME_SYSTEM":"UTC","MEAN_ELEMENT_THEORY":"SGP4","BSTAR":"0.00005235400000","SITE":"AFETR","NORAD_CAT_ID":"45366","SEMIMAJOR_AXIS":"6925.379"},{"ELEMENT_SET_NO":"999","REF_FRAME":"TEME","EPOCH":"2023-01-03T15:26:19.684032","RA_OF_ASC_NODE":"338.7630","TLE_LINE2":"2 45367  53.0556 338.7630 0001718  46.1033 314.0097 15.06397245154731","PERIOD":"95.592","LAUNCH_DATE":"2020-03-18","CLASSIFICATION_TYPE":"U","ECCENTRICITY":"0.00017180","COUNTRY_CODE":"US","APOAPSIS":"548.412","EPHEMERIS_TYPE":"0","MEAN_MOTION_DOT":"0.00004579","OBJECT_NAME":"STARLINK-1273","RCS_SIZE":"LARGE","CENTER_NAME":"EARTH","FILE":"3730878","MEAN_MOTION_DDOT":"0.0000000000000","ARG_OF_PERICENTER":"46.1033","SEMIMAJOR_AXIS":"6925.357","SITE":"AFETR","NORAD_CAT_ID":"45367","BSTAR":"0.00032611000000","MEAN_ELEMENT_THEORY":"SGP4","TLE_LINE1":"1 45367U 20019H   23003.64328338  .00004579  00000-0  32611-3 0  9993","TIME_SYSTEM":"UTC","OBJECT_ID":"2020-019H","OBJECT_TYPE":"PAYLOAD","DECAY_DATE":null,"INCLINATION":"53.0556","MEAN_ANOMALY":"314.0097","MEAN_MOTION":"15.06397245","GP_ID":"222088860","PERIAPSIS":"546.032","REV_AT_EPOCH":"15473"},{"EPOCH":"2023-01-03T14:43:53.242752","RA_OF_ASC_NODE":"338.9051","ELEMENT_SET_NO":"999","REF_FRAME":"TEME","LAUNCH_DATE":"2020-03-18","CLASSIFICATION_TYPE":"U","PERIOD":"95.594","TLE_LINE2":"2 45368  53.0566 338.9051 0002779  36.2137 323.9040 15.06376496154737","MEAN_MOTION_DOT":"0.00001119","EPHEMERIS_TYPE":"0","OBJECT_NAME":"STARLINK-1276","APOAPSIS":"549.210","COUNTRY_CODE":"US","ECCENTRICITY":"0.00027790","ARG_OF_PERICENTER":"36.2137","MEAN_MOTION_DDOT":"0.0000000000000","CENTER_NAME":"EARTH","FILE":"3730608","RCS_SIZE":"LARGE","SITE":"AFETR","NORAD_CAT_ID":"45368","SEMIMAJOR_AXIS":"6925.421","TLE_LINE1":"1 45368U 20019J   23003.61381068  .00001119  00000-0  94101-4 0  9990","TIME_SYSTEM":"UTC","MEAN_ELEMENT_THEORY":"SGP4","BSTAR":"0.00009410100000","DECAY_DATE":null,"INCLINATION":"53.0566","OBJECT_TYPE":"PAYLOAD","OBJECT_ID":"2020-019J","GP_ID":"222083787","PERIAPSIS":"545.361","REV_AT_EPOCH":"15473","MEAN_MOTION":"15.06376496","MEAN_ANOMALY":"323.9040"},{"RCS_SIZE":"LARGE","ARG_OF_PERICENTER":"80.6735","MEAN_MOTION_DDOT":"0.0000000000000","FILE":"3730926","CENTER_NAME":"EARTH","COUNTRY_CODE":"US","ECCENTRICITY":"0.00012150","EPHEMERIS_TYPE":"0","MEAN_MOTION_DOT":"0.00009577","OBJECT_NAME":"STARLINK-1277","APOAPSIS":"548.036","PERIOD":"95.592","TLE_LINE2":"2 45369  53.0542 339.7908 0001215  80.6735 279.4391 15.06406218154700","LAUNCH_DATE":"2020-03-18","CLASSIFICATION_TYPE":"U","ELEMENT_SET_NO":"999","REF_FRAME":"TEME","RA_OF_ASC_NODE":"339.7908","EPOCH":"2023-01-03T09:55:53.539968","MEAN_ANOMALY":"279.4391","GP_ID":"222110669","PERIAPSIS":"546.353","REV_AT_EPOCH":"15470","MEAN_MOTION":"15.06406218","OBJECT_TYPE":"PAYLOAD","OBJECT_ID":"2020-019K","DECAY_DATE":null,"INCLINATION":"53.0542","MEAN_ELEMENT_THEORY":"SGP4","BSTAR":"0.00066083000000","TLE_LINE1":"1 45369U 20019K   23003.41381412  .00009577  00000-0  66083-3 0  9995","TIME_SYSTEM":"UTC","SEMIMAJOR_AXIS":"6925.330","SITE":"AFETR","NORAD_CAT_ID":"45369"},{"PERIOD":"95.592","TLE_LINE2":"2 45370  53.0549 339.8478 0001522  55.3323 304.7809 15.06398971154707","LAUNCH_DATE":"2020-03-18","CLASSIFICATION_TYPE":"U","ELEMENT_SET_NO":"999","REF_FRAME":"TEME","RA_OF_ASC_NODE":"339.8478","EPOCH":"2023-01-03T09:41:19.160736","RCS_SIZE":"LARGE","ARG_OF_PERICENTER":"55.3323","MEAN_MOTION_DDOT":"0.0000000000000","FILE":"3730926","CENTER_NAME":"EARTH","COUNTRY_CODE":"US","ECCENTRICITY":"0.00015220","EPHEMERIS_TYPE":"0","MEAN_MOTION_DOT":"0.00001409","OBJECT_NAME":"STARLINK-1281","APOAPSIS":"548.271","MEAN_ELEMENT_THEORY":"SGP4","BSTAR":"0.00011344000000","TLE_LINE1":"1 45370U 20019L   23003.40369399  .00001409  00000-0  11344-3 0  9992","TIME_SYSTEM":"UTC","SEMIMAJOR_AXIS":"6925.352","SITE":"AFETR","NORAD_CAT_ID":"45370","MEAN_ANOMALY":"304.7809","GP_ID":"222109440","REV_AT_EPOCH":"15470","PERIAPSIS":"546.163","MEAN_MOTION":"15.06398971","OBJECT_TYPE":"PAYLOAD","OBJECT_ID":"2020-019L","INCLINATION":"53.0549","DECAY_DATE":null},{"TLE_LINE2":"2 45371  53.0566 340.2996 0002289  49.8471 310.2718 15.06396014154685","PERIOD":"95.592","CLASSIFICATION_TYPE":"U","LAUNCH_DATE":"2020-03-18","ELEMENT_SET_NO":"999","REF_FRAME":"TEME","RA_OF_ASC_NODE":"340.2996","EPOCH":"2023-01-03T07:11:21.292800","RCS_SIZE":"LARGE","FILE":"3730926","CENTER_NAME":"EARTH","MEAN_MOTION_DDOT":"0.0000000000000","ARG_OF_PERICENTER":"49.8471","ECCENTRICITY":"0.00022890","COUNTRY_CODE":"US","APOAPSIS":"548.811","MEAN_MOTION_DOT":"0.00000705","EPHEMERIS_TYPE":"0","OBJECT_NAME":"STARLINK-1287","BSTAR":"0.00006623800000","MEAN_ELEMENT_THEORY":"SGP4","TLE_LINE1":"1 45371U 20019M   23003.29955200  .00000705  00000-0  66238-4 0  9993","TIME_SYSTEM":"UTC","SEMIMAJOR_AXIS":"6925.361","SITE":"AFETR","NORAD_CAT_ID":"45371","MEAN_ANOMALY":"310.2718","MEAN_MOTION":"15.06396014","GP_ID":"222109689","PERIAPSIS":"545.641","REV_AT_EPOCH":"15468","OBJECT_ID":"2020-019M","OBJECT_TYPE":"PAYLOAD","INCLINATION":"53.0566","DECAY_DATE":null},{"TLE_LINE2":"2 45372  53.0578 340.2240 0002046  43.9037 316.2114 15.06390044154688","PERIOD":"95.593","LAUNCH_DATE":"2020-03-18","CLASSIFICATION_TYPE":"U","REF_FRAME":"TEME","ELEMENT_SET_NO":"999","RA_OF_ASC_NODE":"340.2240","EPOCH":"2023-01-03T07:33:56.575296","RCS_SIZE":"LARGE","FILE":"3730926","CENTER_NAME":"EARTH","ARG_OF_PERICENTER":"43.9037","MEAN_MOTION_DDOT":"0.0000000000000","ECCENTRICITY":"0.00020460","COUNTRY_CODE":"US","APOAPSIS":"548.661","OBJECT_NAME":"STARLINK-1288","MEAN_MOTION_DOT":"0.00002232","EPHEMERIS_TYPE":"0","BSTAR":"0.00016875000000","MEAN_ELEMENT_THEORY":"SGP4","TIME_SYSTEM":"UTC","TLE_LINE1":"1 45372U 20019N   23003.31523814  .00002232  00000-0  16875-3 0  9997","SEMIMAJOR_AXIS":"6925.379","NORAD_CAT_ID":"45372","SITE":"AFETR","MEAN_ANOMALY":"316.2114","MEAN_MOTION":"15.06390044","GP_ID":"222109939","REV_AT_EPOCH":"15468","PERIAPSIS":"545.827","OBJECT_ID":"2020-019N","OBJECT_TYPE":"PAYLOAD","DECAY_DATE":null,"INCLINATION":"53.0578"},{"MEAN_ELEMENT_THEORY":"SGP4","BSTAR":"0.00013213000000","TLE_LINE1":"1 45373U 20019P   23003.76123595  .00001686  00000-0  13213-3 0  9994","TIME_SYSTEM":"UTC","SEMIMAJOR_AXIS":"6925.374","SITE":"AFETR","NORAD_CAT_ID":"45373","MEAN_ANOMALY":"320.6834","GP_ID":"222087944","PERIAPSIS":"545.744","REV_AT_EPOCH":"15475","MEAN_MOTION":"15.06391804","OBJECT_TYPE":"PAYLOAD","OBJECT_ID":"2020-019P","DECAY_DATE":null,"INCLINATION":"53.0555","PERIOD":"95.593","TLE_LINE2":"2 45373  53.0555 338.2296 0002158  39.4311 320.6834 15.06391804154752","CLASSIFICATION_TYPE":"U","LAUNCH_DATE":"2020-03-18","ELEMENT_SET_NO":"999","REF_FRAME":"TEME","RA_OF_ASC_NODE":"338.2296","EPOCH":"2023-01-03T18:16:10.786080","RCS_SIZE":"LARGE","MEAN_MOTION_DDOT":"0.0000000000000","ARG_OF_PERICENTER":"39.4311","FILE":"3730847","CENTER_NAME":"EARTH","COUNTRY_CODE":"US","ECCENTRICITY":"0.00021580","MEAN_MOTION_DOT":"0.00001686","EPHEMERIS_TYPE":"0","OBJECT_NAME":"STARLINK-1295","APOAPSIS":"548.733"},{"COUNTRY_CODE":"US","ECCENTRICITY":"0.00016380","OBJECT_NAME":"STARLINK-1300","EPHEMERIS_TYPE":"0","MEAN_MOTION_DOT":"0.00006293","APOAPSIS":"548.331","RCS_SIZE":"LARGE","ARG_OF_PERICENTER":"61.1339","MEAN_MOTION_DDOT":"0.0000000000000","FILE":"3730926","CENTER_NAME":"EARTH","REF_FRAME":"TEME","ELEMENT_SET_NO":"999","RA_OF_ASC_NODE":"339.1433","EPOCH":"2023-01-03T13:24:15.202656","PERIOD":"95.592","TLE_LINE2":"2 45374  53.0534 339.1433 0001638  61.1339 298.9815 15.06405427154727","LAUNCH_DATE":"2020-03-18","CLASSIFICATION_TYPE":"U","OBJECT_TYPE":"PAYLOAD","OBJECT_ID":"2020-019Q","DECAY_DATE":null,"INCLINATION":"53.0534","MEAN_ANOMALY":"298.9815","PERIAPSIS":"546.063","GP_ID":"222108940","REV_AT_EPOCH":"15472","MEAN_MOTION":"15.06405427","SEMIMAJOR_AXIS":"6925.332","NORAD_CAT_ID":"45374","SITE":"AFETR","MEAN_ELEMENT_THEORY":"SGP4","BSTAR":"0.00044091000000","TIME_SYSTEM":"UTC","TLE_LINE1":"1 45374U 20019Q   23003.55850929  .00006293  00000-0  44091-3 0  9997"},{"TLE_LINE1":"1 45375U 20019R   23003.30786532  .00006836  00000-0  47737-3 0  9992","TIME_SYSTEM":"UTC","MEAN_ELEMENT_THEORY":"SGP4","BSTAR":"0.00047737000000","SITE":"AFETR","NORAD_CAT_ID":"45375","SEMIMAJOR_AXIS":"6925.341","GP_ID":"222109190","PERIAPSIS":"546.192","REV_AT_EPOCH":"15468","MEAN_MOTION":"15.06402399","MEAN_ANOMALY":"277.4372","INCLINATION":"53.0550","DECAY_DATE":null,"OBJECT_TYPE":"PAYLOAD","OBJECT_ID":"2020-019R","LAUNCH_DATE":"2020-03-18","CLASSIFICATION_TYPE":"U","PERIOD":"95.592","TLE_LINE2":"2 45375  53.0550 340.2604 0001464  82.6783 277.4372 15.06402399154687","RA_OF_ASC_NODE":"340.2604","EPOCH":"2023-01-03T07:23:19.563648","ELEMENT_SET_NO":"999","REF_FRAME":"TEME","MEAN_MOTION_DDOT":"0.0000000000000","ARG_OF_PERICENTER":"82.6783","FILE":"3730926","CENTER_NAME":"EARTH","RCS_SIZE":"LARGE","MEAN_MOTION_DOT":"0.00006836","EPHEMERIS_TYPE":"0","OBJECT_NAME":"STARLINK-1302","APOAPSIS":"548.220","COUNTRY_CODE":"US","ECCENTRICITY":"0.00014640"}];
